GLOBALSTAR M084         
1 38040U 11080A   24320.77393087 -.00000077  00000+0  14744-3 0  9997
2 38040  52.0025 338.1821 0000199  15.0940 156.2965 12.62270546595711
GLOBALSTAR M080         
1 38041U 11080B   24320.82683450 -.00000080  00000+0  13485-3 0  9995
2 38041  52.0077 339.5539 0000167 268.5510 262.7872 12.62268494595846
GLOBALSTAR M082         
1 38042U 11080C   24320.96824017 -.00000097  00000+0  35260-4 0  9991
2 38042  52.0081 294.5465 0000948  71.3354 323.1752 12.62269584596574
GLOBALSTAR M092         
1 38043U 11080D   24320.89288020 -.00000087  00000+0  96135-4 0  9999
2 38043  52.0110  25.1397 0000407  98.3516  73.6744 12.62269434595019
GLOBALSTAR M090         
1 38044U 11080E   24320.91770411 -.00000091  00000+0  70126-4 0  9990
2 38044  51.9888 288.7824 0000706  71.6973 333.5286 12.62270710596687
GLOBALSTAR M086         
1 38045U 11080F   24320.49332980 -.00000087  00000+0  94809-4 0  9998
2 38045  51.9902 290.6088 0000550 179.7146 336.6804 12.62270165596570
GLOBALSTAR M097         
1 39072U 13005A   24320.88165733 -.00000061  00000+0  23808-3 0  9993
2 39072  52.0035 203.7589 0000986  90.1143 269.9836 12.62267289543878
GLOBALSTAR M093         
1 39073U 13005B   24320.37979476 -.00000054  00000+0  27510-3 0  9991
2 39073  51.9796 198.9293 0001140  91.1549 268.9448 12.62267694543768
